SL-16 R/B               
1 22566U 93016B   26001.98972253 -.00000011  00000+0  18667-4 0  9998
2 22566  71.0089 355.2714 0008060  56.7246 303.4648 14.15295882692739
COSMOS 2242             
1 22626U 93024A   26001.96730513  .00004132  00000+0  36330-3 0  9996
2 22626  82.5193 330.5092 0016694 163.5322 196.6446 14.96209093770416
SL-16 R/B               
1 22803U 93059B   26001.77738962  .00000003  00000+0  25124-4 0  9999
2 22803  70.9900 152.2322 0019096 307.3288  52.6095 14.17219538670051
ARIANE 40 R/B           
1 22830U 93061H   26001.73020871  .00000596  00000+0  23407-3 0  9999
2 22830  98.5047  71.8939 0011718 120.4287 239.8057 14.32817509684517
COSMOS 2278             
1 23087U 94023A   26001.97546449  .00000429  00000+0  24894-3 0  9999
2 23087  71.0541 314.6734 0007466 142.8087 217.3554 14.14353670635376
SL-16 R/B               
1 23088U 94023B   26001.98154692  .00000139  00000+0  96420-4 0  9999
2 23088  70.9976 210.9784 0002466 355.8765   4.2337 14.14998888636654
SL-16 R/B               
1 23343U 94074B   26001.96803079  .00000933  00000+0  13197-3 0  9998
2 23343  97.7183  35.4665 0008004  80.9555 345.1402 14.79317048677389
SL-16 R/B               
1 23405U 94077B   26001.70651694 -.00000169  00000+0 -61686-4 0  9996
2 23405  70.9826 133.4095 0005036 267.9440  92.1106 14.15550238606756
ARIANE 40+ R/B          
1 23561U 95021B   26001.76217463  .00000682  00000+0  23159-3 0  9997
2 23561  98.4625  74.1072 0006425 351.6536 120.7813 14.39714015609619
SL-16 R/B               
1 23705U 95058B   26001.92222070  .00000273  00000+0  16370-3 0  9998
2 23705  71.0222 320.4309 0014289 228.1392 131.8512 14.15483337558407
SL-16 R/B               
1 24298U 96051B   26001.95620977  .00000040  00000+0  48083-4 0  9990
2 24298  70.7598 316.4912 0019409 236.5413 123.3852 14.12398988512225
ORBVIEW 2 (SEASTAR)     
1 24883U 97037A   26001.92077198  .00000622  00000+0  23258-3 0  9995
2 24883  98.8470 164.5050 0001328 246.2877 113.8168 14.35435147498897
