CCSDS_OMM_VERS = 2.0
CREATION_DATE  = 
ORIGINATOR     = 

OBJECT_NAME    = SL-16 R/B
OBJECT_ID      = 1993-016B
CENTER_NAME    = EARTH
REF_FRAME      = TEME
TIME_SYSTEM    = UTC
MEAN_ELEMENT_THEORY = SGP/SGP4

EPOCH          = 2026-01-01T23:45:12.026592
MEAN_MOTION    = 14.15295882
ECCENTRICITY   = .00080606
INCLINATION    = 71.0089
RA_OF_ASC_NODE = 355.2714
ARG_OF_PERICENTER = 56.7246
MEAN_ANOMALY   = 303.4648

EPHEMERIS_TYPE = 0
CLASSIFICATION_TYPE = U
NORAD_CAT_ID   = 22566
ELEMENT_SET_NO = 999
REV_AT_EPOCH   = 69273
BSTAR          = .18667437E-4
MEAN_MOTION_DOT = -.11E-6
MEAN_MOTION_DDOT = 0

CCSDS_OMM_VERS = 2.0
CREATION_DATE  = 
ORIGINATOR     = 

OBJECT_NAME    = COSMOS 2242
OBJECT_ID      = 1993-024A
CENTER_NAME    = EARTH
REF_FRAME      = TEME
TIME_SYSTEM    = UTC
MEAN_ELEMENT_THEORY = SGP/SGP4

EPOCH          = 2026-01-01T23:12:55.163232
MEAN_MOTION    = 14.96209093
ECCENTRICITY   = .00166948
INCLINATION    = 82.5193
RA_OF_ASC_NODE = 330.5092
ARG_OF_PERICENTER = 163.5322
MEAN_ANOMALY   = 196.6446

EPHEMERIS_TYPE = 0
CLASSIFICATION_TYPE = U
NORAD_CAT_ID   = 22626
ELEMENT_SET_NO = 999
REV_AT_EPOCH   = 77041
BSTAR          = .3632976E-3
MEAN_MOTION_DOT = .4132E-4
MEAN_MOTION_DDOT = 0

CCSDS_OMM_VERS = 2.0
CREATION_DATE  = 
ORIGINATOR     = 

OBJECT_NAME    = SL-16 R/B
OBJECT_ID      = 1993-059B
CENTER_NAME    = EARTH
REF_FRAME      = TEME
TIME_SYSTEM    = UTC
MEAN_ELEMENT_THEORY = SGP/SGP4

EPOCH          = 2026-01-01T18:39:26.463168
MEAN_MOTION    = 14.17219538
ECCENTRICITY   = .00190961
INCLINATION    = 70.9900
RA_OF_ASC_NODE = 152.2322
ARG_OF_PERICENTER = 307.3288
MEAN_ANOMALY   = 52.6095

EPHEMERIS_TYPE = 0
CLASSIFICATION_TYPE = U
NORAD_CAT_ID   = 22803
ELEMENT_SET_NO = 999
REV_AT_EPOCH   = 67005
BSTAR          = .25123743E-4
MEAN_MOTION_DOT = .3E-7
MEAN_MOTION_DDOT = 0

CCSDS_OMM_VERS = 2.0
CREATION_DATE  = 
ORIGINATOR     = 

OBJECT_NAME    = ARIANE 40 R/B
OBJECT_ID      = 1993-061H
CENTER_NAME    = EARTH
REF_FRAME      = TEME
TIME_SYSTEM    = UTC
MEAN_ELEMENT_THEORY = SGP/SGP4

EPOCH          = 2026-01-01T17:31:30.032544
MEAN_MOTION    = 14.32817509
ECCENTRICITY   = .00117181
INCLINATION    = 98.5047
RA_OF_ASC_NODE = 71.8939
ARG_OF_PERICENTER = 120.4287
MEAN_ANOMALY   = 239.8057

EPHEMERIS_TYPE = 0
CLASSIFICATION_TYPE = U
NORAD_CAT_ID   = 22830
ELEMENT_SET_NO = 999
REV_AT_EPOCH   = 68451
BSTAR          = .23406657E-3
MEAN_MOTION_DOT = .596E-5
MEAN_MOTION_DDOT = 0

CCSDS_OMM_VERS = 2.0
CREATION_DATE  = 
ORIGINATOR     = 

OBJECT_NAME    = COSMOS 2278
OBJECT_ID      = 1994-023A
CENTER_NAME    = EARTH
REF_FRAME      = TEME
TIME_SYSTEM    = UTC
MEAN_ELEMENT_THEORY = SGP/SGP4

EPOCH          = 2026-01-01T23:24:40.131936
MEAN_MOTION    = 14.14353670
ECCENTRICITY   = .00074661
INCLINATION    = 71.0541
RA_OF_ASC_NODE = 314.6734
ARG_OF_PERICENTER = 142.8087
MEAN_ANOMALY   = 217.3554

EPHEMERIS_TYPE = 0
CLASSIFICATION_TYPE = U
NORAD_CAT_ID   = 23087
ELEMENT_SET_NO = 999
REV_AT_EPOCH   = 63537
BSTAR          = .24893747E-3
MEAN_MOTION_DOT = .429E-5
MEAN_MOTION_DDOT = 0

CCSDS_OMM_VERS = 2.0
CREATION_DATE  = 
ORIGINATOR     = 

OBJECT_NAME    = SL-16 R/B
OBJECT_ID      = 1994-023B
CENTER_NAME    = EARTH
REF_FRAME      = TEME
TIME_SYSTEM    = UTC
MEAN_ELEMENT_THEORY = SGP/SGP4

EPOCH          = 2026-01-01T23:33:25.653888
MEAN_MOTION    = 14.14998888
ECCENTRICITY   = .0002466
INCLINATION    = 70.9976
RA_OF_ASC_NODE = 210.9784
ARG_OF_PERICENTER = 355.8765
MEAN_ANOMALY   = 4.2337

EPHEMERIS_TYPE = 0
CLASSIFICATION_TYPE = U
NORAD_CAT_ID   = 23088
ELEMENT_SET_NO = 999
REV_AT_EPOCH   = 63665
BSTAR          = .96420056E-4
MEAN_MOTION_DOT = .139E-5
MEAN_MOTION_DDOT = 0

CCSDS_OMM_VERS = 2.0
CREATION_DATE  = 
ORIGINATOR     = 

OBJECT_NAME    = SL-16 R/B
OBJECT_ID      = 1994-074B
CENTER_NAME    = EARTH
REF_FRAME      = TEME
TIME_SYSTEM    = UTC
MEAN_ELEMENT_THEORY = SGP/SGP4

EPOCH          = 2026-01-01T23:13:57.860256
MEAN_MOTION    = 14.79317048
ECCENTRICITY   = .00080048
INCLINATION    = 97.7183
RA_OF_ASC_NODE = 35.4665
ARG_OF_PERICENTER = 80.9555
MEAN_ANOMALY   = 345.1402

EPHEMERIS_TYPE = 0
CLASSIFICATION_TYPE = U
NORAD_CAT_ID   = 23343
ELEMENT_SET_NO = 999
REV_AT_EPOCH   = 67738
BSTAR          = .13197282E-3
MEAN_MOTION_DOT = .933E-5
MEAN_MOTION_DDOT = 0

CCSDS_OMM_VERS = 2.0
CREATION_DATE  = 
ORIGINATOR     = 

OBJECT_NAME    = SL-16 R/B
OBJECT_ID      = 1994-077B
CENTER_NAME    = EARTH
REF_FRAME      = TEME
TIME_SYSTEM    = UTC
MEAN_ELEMENT_THEORY = SGP/SGP4

EPOCH          = 2026-01-01T16:57:23.063616
MEAN_MOTION    = 14.15550238
ECCENTRICITY   = .00050366
INCLINATION    = 70.9826
RA_OF_ASC_NODE = 133.4095
ARG_OF_PERICENTER = 267.9440
MEAN_ANOMALY   = 92.1106

EPHEMERIS_TYPE = 0
CLASSIFICATION_TYPE = U
NORAD_CAT_ID   = 23405
ELEMENT_SET_NO = 999
REV_AT_EPOCH   = 60675
BSTAR          = -.6168637E-4
MEAN_MOTION_DOT = -.169E-5
MEAN_MOTION_DDOT = 0

CCSDS_OMM_VERS = 2.0
CREATION_DATE  = 
ORIGINATOR     = 

OBJECT_NAME    = ARIANE 40+ R/B
OBJECT_ID      = 1995-021B
CENTER_NAME    = EARTH
REF_FRAME      = TEME
TIME_SYSTEM    = UTC
MEAN_ELEMENT_THEORY = SGP/SGP4

EPOCH          = 2026-01-01T18:17:31.888032
MEAN_MOTION    = 14.39714015
ECCENTRICITY   = .00064257
INCLINATION    = 98.4625
RA_OF_ASC_NODE = 74.1072
ARG_OF_PERICENTER = 351.6536
MEAN_ANOMALY   = 120.7813

EPHEMERIS_TYPE = 0
CLASSIFICATION_TYPE = U
NORAD_CAT_ID   = 23561
ELEMENT_SET_NO = 999
REV_AT_EPOCH   = 60961
BSTAR          = .23159451E-3
MEAN_MOTION_DOT = .682E-5
MEAN_MOTION_DDOT = 0

CCSDS_OMM_VERS = 2.0
CREATION_DATE  = 
ORIGINATOR     = 

OBJECT_NAME    = SL-16 R/B
OBJECT_ID      = 1995-058B
CENTER_NAME    = EARTH
REF_FRAME      = TEME
TIME_SYSTEM    = UTC
MEAN_ELEMENT_THEORY = SGP/SGP4

EPOCH          = 2026-01-01T22:07:59.868480
MEAN_MOTION    = 14.15483337
ECCENTRICITY   = .0014289
INCLINATION    = 71.0222
RA_OF_ASC_NODE = 320.4309
ARG_OF_PERICENTER = 228.1392
MEAN_ANOMALY   = 131.8512

EPHEMERIS_TYPE = 0
CLASSIFICATION_TYPE = U
NORAD_CAT_ID   = 23705
ELEMENT_SET_NO = 999
REV_AT_EPOCH   = 55840
BSTAR          = .16369806E-3
MEAN_MOTION_DOT = .273E-5
MEAN_MOTION_DDOT = 0

CCSDS_OMM_VERS = 2.0
CREATION_DATE  = 
ORIGINATOR     = 

OBJECT_NAME    = SL-16 R/B
OBJECT_ID      = 1996-051B
CENTER_NAME    = EARTH
REF_FRAME      = TEME
TIME_SYSTEM    = UTC
MEAN_ELEMENT_THEORY = SGP/SGP4

EPOCH          = 2026-01-01T22:56:56.524128
MEAN_MOTION    = 14.12398988
ECCENTRICITY   = .00194091
INCLINATION    = 70.7598
RA_OF_ASC_NODE = 316.4912
ARG_OF_PERICENTER = 236.5413
MEAN_ANOMALY   = 123.3852

EPHEMERIS_TYPE = 0
CLASSIFICATION_TYPE = U
NORAD_CAT_ID   = 24298
ELEMENT_SET_NO = 999
REV_AT_EPOCH   = 51222
BSTAR          = .48082659E-4
MEAN_MOTION_DOT = .4E-6
MEAN_MOTION_DDOT = 0

CCSDS_OMM_VERS = 2.0
CREATION_DATE  = 
ORIGINATOR     = 

OBJECT_NAME    = ORBVIEW 2 (SEASTAR)
OBJECT_ID      = 1997-037A
CENTER_NAME    = EARTH
REF_FRAME      = TEME
TIME_SYSTEM    = UTC
MEAN_ELEMENT_THEORY = SGP/SGP4

EPOCH          = 2026-01-01T22:05:54.699072
MEAN_MOTION    = 14.35435147
ECCENTRICITY   = .00013283
INCLINATION    = 98.8470
RA_OF_ASC_NODE = 164.5050
ARG_OF_PERICENTER = 246.2877
MEAN_ANOMALY   = 113.8168

EPHEMERIS_TYPE = 0
CLASSIFICATION_TYPE = U
NORAD_CAT_ID   = 24883
ELEMENT_SET_NO = 999
REV_AT_EPOCH   = 49889
BSTAR          = .23257965E-3
MEAN_MOTION_DOT = .622E-5
MEAN_MOTION_DDOT = 0

